#cP2018  1 17  0  0  0.00000000      96 ORBIT IGS14 HLM  IGS
## 1984 259200.00000000   900.00000000 58135 0.0000000000000
+   32   G01G02G03G04G05G06G07G08G09G10G11G12G13G14G15G16G17
+        G18G19G20G21G22G23G24G25G26G27G28G29G30G31G32  0  0
+          0  0  0  0  0  0  0  0  0  0  0  0  0  0  0  0  0
+          0  0  0  0  0  0  0  0  0  0  0  0  0  0  0  0  0
+          0  0  0  0  0  0  0  0  0  0  0  0  0  0  0  0  0
++         2  2  2  0  2  2  2  2  2  2  2  2  2  2  2  2  2
++         2  2  2  2  2  2  2  2  3  2  2  2  2  2  2  0  0
++         0  0  0  0  0  0  0  0  0  0  0  0  0  0  0  0  0
++         0  0  0  0  0  0  0  0  0  0  0  0  0  0  0  0  0
++         0  0  0  0  0  0  0  0  0  0  0  0  0  0  0  0  0
%c G  cc GPS ccc cccc cccc cccc cccc ccccc ccccc ccccc ccccc
%c cc cc ccc ccc cccc cccc cccc cccc ccccc ccccc ccccc ccccc
%f  1.2500000  1.025000000  0.00000000000  0.000000000000000
%f  0.0000000  0.000000000  0.00000000000  0.000000000000000
%i    0    0    0    0      0      0      0      0         0
%i    0    0    0    0      0      0      0      0         0
/* FINAL ORBIT COMBINATION FROM WEIGHTED AVERAGE OF:        
/* cod emr esa gfz grg jpl mit ngs sio                      
/* REFERENCED TO IGS TIME (IGST) AND TO WEIGHTED MEAN POLE: 
/* PCV:IGS14_1984 OL/AL:FES2004  NONE     Y  ORB:CMB CLK:CMB
*  2018  1 17 16 30  0.00000000
PG01 -13379.946595  10624.858153  20121.291196    -24.020223  5  7  6 107       
PG02  13720.715736  14524.498899 -17094.508804    225.656557  6  5  4 104       
PG03 -23092.811536  12871.618949   2229.901376     -8.231191  5  5  1  75       
PG04  -4549.462679 -14470.583796 -22009.667112 999999.999999
PG05  19301.058792   2870.100829 -18210.139400    -16.724242  6  6  6 104       
PG06   7636.090601  23575.908789  -9504.403346    414.797864  5  6  4 106       
PG07  -6211.955053  23599.136220  -9720.494780    250.177683  5 10  6 104       
PG08 -23862.800971  -3257.620332  11401.014739    -87.991009  5  5  4  82       
PG09  -7317.777540  13572.082833 -21664.082715    493.828939  6  7  7 113       
PG10    830.688463 -17270.776871  20149.037235    147.377173  4  6  4  98       
PG11 -14723.684980   6667.480515  20518.325887   -734.239347  4  7  4  93       
PG12  24035.988801 -10089.347533   4321.010547    355.005988  6  7  6  87       
PG13  23279.233540  11740.570488   4915.530794    -95.382076  6  4  5  91       
PG14 -16644.282466 -18464.282317   9866.471544    -92.548693  7  6  5  93       
PG15  23971.835159    687.367486  11614.164708   -357.347412  5  5  4  94       
PG16 -19244.310025  -3439.528115 -18310.318516     33.893867  4  5  4 114       
PG17   9070.274267  18566.086049  17151.371794   -130.191373  5  9  5 106       
PG18  10918.453901 -20354.359859  13563.837847    633.524506  8  8  7  98       
PG19  15617.500229  18484.881459  10425.191287   -463.110453  4  8  5  71       
PG20  22561.784072 -13050.427112  -5140.423189    498.527856  6  9  3  91       
PG21   2861.636999 -25196.050813  -7025.538882   -440.757091  6  9  4  89       
PG22 -23556.933069   8092.803105   9487.556376   -260.139973  8  9  3  99       
PG23 -18733.654726   5191.072384 -18016.433062   -219.092769  6  7  7 107       
PG24  14522.980282  -7462.007442  20794.481936    -44.902131  2  4  5 108       
PG25  18181.251926 -17669.770308  -7661.455067   -523.873106  5  6  4  73       
PG26 -10466.028855 -11333.822753 -21624.860482   -284.013870  9  5  8 105       
PG27 -23587.803359 -12489.563502   -478.762437    363.027998  3  3  5  85       
PG28  -5535.660195  17626.141342  19729.772109    680.645269  4  9  4  99       
PG29  11852.294224  -9757.209323 -21682.451724    509.782589  8 10  7 108       
PG30   -983.468794  26442.539791   -986.072259    111.720432  5  3  2 106       
PG31  -7622.001182 -22892.736038 -10559.276836    147.991439  8  8  9  80       
PG32 -10609.347885 -18231.781671  16202.446115   -532.928195  3  3  5 100       
*  2018  1 17 16 45  0.00000000
PG01 -13639.016562   8249.459715  21058.957703    -24.021817  5  7  6 113       
PG02  13786.808218  16468.966733 -15262.876177    225.646958  5  5  5 103       
PG03 -22891.617315  12423.338628   5047.992313     -8.225114  5  6  2  77       
PG04  -2478.634995 -15750.467214 -21423.196972 999999.999999
PG05  17634.864033   4220.083370 -19574.660114    -16.723244  6  5  6 100       
PG06   7497.375390  24528.340834  -6838.214722    414.798048  5  7  4 101       
PG07  -6543.406857  22320.055901 -12201.139838    250.172862  5 10  6  96       
PG08 -24820.080980  -3919.834342   8863.747578    -87.992208  4  5  4  98       
PG09  -9540.368478  12516.167219 -21434.310369    493.831878  6  7  7 114       
PG10   2735.504530 -18440.862058  18889.853777    147.382258  5  6  5  93       
PG11 -15848.049023   4464.360148  20271.283263   -734.240181  4  7  3  97       
PG12  23551.564791  -9579.122858   7141.569842    355.004523  5  6  6  93       
PG13  23503.841220  12158.711684   2081.264521    -95.382372  6  4  5  92       
PG14 -15480.742312 -18026.643706  12318.425986    -92.549328  6  6  5  97       
PG15  25002.562570   1384.978666   9203.391696   -357.347373  5  5  5 101       
PG16 -17425.884816  -4560.780774 -19798.983928     33.893398  4  5  4  92       
PG17   7280.308956  17710.719815  18850.972650   -130.188920  5  9  6 100       
PG18  12163.398200 -20952.423103  11288.427459    633.524286  8  8  7  80       
PG19  14338.918038  17938.624576  12881.935294   -463.108401  4  9  5  89       
PG20  22223.137957 -12325.276863  -7799.160360    498.528651  5  9  3 104       
PG21   3290.052709 -24185.887921  -9621.701044   -440.753560  6  9  4  54       
PG22 -22790.788118   7123.344741  11890.693285   -260.151349  7  9  3  97       
PG23 -20481.607079   4198.005179 -16357.349748   -219.092776  6  6  7  91       
PG24  14869.301268  -5045.719061  21293.475438    -44.902749  3  4  5 108       
PG25  18885.043572 -17884.046365  -4883.394677   -523.878619  5  5  4  60       
PG26  -8445.092504 -12771.625266 -21696.006896   -284.001414  9  5  8 111       
PG27 -23315.919843 -12572.775816  -3340.070753    363.029684  3  4  5  92       
PG28  -7351.789245  18566.131359  18164.539690    680.648570  4  9  5 100       
PG29  13954.210706  -8535.664512 -20932.317445    509.777879  8 10  7 115       
PG30  -1297.683079  26173.339280  -3802.430259    111.717530  5  3  2  93       
PG31  -7420.211221 -23979.774929  -7946.696623    147.988747  8  9  9  99       
PG32  -8776.727833 -17548.505076  17954.329239   -532.928502  2  3  5 104       
*  2018  1 17 17  0  0.00000000
PG01 -14034.389798   5808.017527  21628.126790    -24.023370  5  7  6 111       
PG02  13909.229581  18181.310266 -13162.188186    225.637736  5  6  5 101       
PG03 -22465.322810  11772.454525   7778.904946     -8.219070  5  6  2  93       
PG04   -548.908042 -17094.076266 -20474.071444 999999.999999
PG05  15933.349528   5737.836805 -20606.948847    -16.722067  6  5  5 107       
PG06   7366.948157  25180.558602  -4054.119255    414.798214  5  7  4 106       
PG07  -6971.106603  20789.225163 -14464.669206    250.167542  5  9  6  92       
PG08 -25537.035666  -4421.967425   6175.380729    -87.993014  4  5  5  93       
PG09 -11770.367666  11591.869400 -20837.016244    493.834720  6  7  7 105       
PG10   4451.114408 -19609.788587  17304.882153    147.387314  5  6  5  86       
PG11 -17037.062800   2351.593814  19657.361567   -734.241194  4  7  2  88       
PG12  22836.196519  -8863.350661   9837.083238    355.002520  5  5  6 102       
PG13  23467.583259  12406.881857   -788.900247    -95.382278  6  4  5 100       
PG14 -14061.867841 -17532.720225  14563.203467    -92.549877  6  6  5  87       
PG15  25798.369789   1944.972988   6636.287882   -357.347204  5  5  6 102       
PG16 -15548.692007  -5867.754611 -20954.756451     33.892924  4  6  4  88       
PG17   5290.037196  16885.293428  20237.279614   -130.186992  5 10  6 108       
PG18  13183.903858 -21435.222404   8822.403961    633.524289  8  9  7  94       
PG19  12793.099306  17337.961088  15111.158309   -463.106431  3  9  5  94       
PG20  21707.537878 -11385.130863 -10324.010083    498.529938  4  9  4  84       
PG21   3823.960255 -22910.711839 -12046.017890   -440.750069  6  9  5 102       
PG22 -21875.652215   5952.848244  14091.825344   -260.162985  7  9  3  93       
PG23 -22083.871283   3370.708755 -14416.293503   -219.092843  5  5  6  99       
PG24  15338.869543  -2616.793272  21421.783254    -44.903264  3  5  4 112       
PG25  19323.388246 -17938.774980  -2020.385518   -523.884173  5  5  5  98       
PG26  -6510.138177 -14304.202696 -21393.609203   -283.988880  9  4  8  98       
PG27 -22752.866488 -12551.655930  -6144.786890    363.031447  4  4  5 117       
PG28  -8955.298631  19506.021488  16301.553429    680.651429  4  9  5  96       
PG29  16025.693715  -7478.176474 -19822.230012    509.772954  8 10  7 100       
PG30  -1649.937562  25605.400008  -6552.745862    111.714555  4  2  2  98       
PG31  -7242.523408 -24770.756922  -5193.734656    147.986440  7  9  9  92       
PG32  -6743.311716 -16893.676296  19398.484842   -532.928773  2  5  5 107       
EOF
